[{"OBJECT_NAME":"HELIOS 1B","OBJECT_ID":"1999-064A","EPOCH":"2026-03-30T07:04:05.765088","MEAN_MOTION":14.8777784,"ECCENTRICITY":0.00017346,"INCLINATION":98.1672,"RA_OF_ASC_NODE":352.1414,"ARG_OF_PERICENTER":46.9779,"MEAN_ANOMALY":313.1581,"EPHEMERIS_TYPE":0,"CLASSIFICATION_TYPE":"U","NORAD_CAT_ID":25977,"ELEMENT_SET_NO":999,"REV_AT_EPOCH":68832,"BSTAR":0.00023807539,"MEAN_MOTION_DOT":2.115e-5,"MEAN_MOTION_DDOT":0},{"OBJECT_NAME":"TERRA","OBJECT_ID":"1999-068A","EPOCH":"2026-03-30T14:54:10.747008","MEAN_MOTION":14.61037126,"ECCENTRICITY":0.00036049,"INCLINATION":97.9549,"RA_OF_ASC_NODE":142.2515,"ARG_OF_PERICENTER":108.1205,"MEAN_ANOMALY":44.9382,"EPHEMERIS_TYPE":0,"CLASSIFICATION_TYPE":"U","NORAD_CAT_ID":25994,"ELEMENT_SET_NO":999,"REV_AT_EPOCH":39813,"BSTAR":0.0001253544,"MEAN_MOTION_DOT":5.71e-6,"MEAN_MOTION_DDOT":0},{"OBJECT_NAME":"SL-16 R/B","OBJECT_ID":"2000-006B","EPOCH":"2026-03-30T08:38:29.785344","MEAN_MOTION":14.15828374,"ECCENTRICITY":0.0015613,"INCLINATION":71.0026,"RA_OF_ASC_NODE":54.3705,"ARG_OF_PERICENTER":157.4777,"MEAN_ANOMALY":202.7034,"EPHEMERIS_TYPE":0,"CLASSIFICATION_TYPE":"U","NORAD_CAT_ID":26070,"ELEMENT_SET_NO":999,"REV_AT_EPOCH":35148,"BSTAR":0.00018468,"MEAN_MOTION_DOT":3.16e-6,"MEAN_MOTION_DDOT":0},{"OBJECT_NAME":"TITAN 4B R/B","OBJECT_ID":"2000-047B","EPOCH":"2026-03-30T10:24:52.292448","MEAN_MOTION":15.09754708,"ECCENTRICITY":0.00398737,"INCLINATION":67.9917,"RA_OF_ASC_NODE":342.172,"ARG_OF_PERICENTER":11.0705,"MEAN_ANOMALY":349.1312,"EPHEMERIS_TYPE":0,"CLASSIFICATION_TYPE":"U","NORAD_CAT_ID":26474,"ELEMENT_SET_NO":999,"REV_AT_EPOCH":39604,"BSTAR":0.0003163769,"MEAN_MOTION_DOT":5.08e-5,"MEAN_MOTION_DDOT":0},{"OBJECT_NAME":"ENVISAT","OBJECT_ID":"2002-009A","EPOCH":"2026-03-30T15:10:16.379328","MEAN_MOTION":14.3904428,"ECCENTRICITY":0.00012196,"INCLINATION":98.3762,"RA_OF_ASC_NODE":42.7353,"ARG_OF_PERICENTER":81.9125,"MEAN_ANOMALY":91.8426,"EPHEMERIS_TYPE":0,"CLASSIFICATION_TYPE":"U","NORAD_CAT_ID":27386,"ELEMENT_SET_NO":999,"REV_AT_EPOCH":26218,"BSTAR":6.3035655e-5,"MEAN_MOTION_DOT":1.52e-6,"MEAN_MOTION_DDOT":0},{"OBJECT_NAME":"IDEFIX & ARIANE 42P R/B","OBJECT_ID":"2002-021B","EPOCH":"2026-03-30T09:38:38.054976","MEAN_MOTION":14.31040174,"ECCENTRICITY":0.00126541,"INCLINATION":98.5894,"RA_OF_ASC_NODE":27.7635,"ARG_OF_PERICENTER":123.253,"MEAN_ANOMALY":236.9867,"EPHEMERIS_TYPE":0,"CLASSIFICATION_TYPE":"U","NORAD_CAT_ID":27422,"ELEMENT_SET_NO":999,"REV_AT_EPOCH":24698,"BSTAR":0.00014252679,"MEAN_MOTION_DOT":3.32e-6,"MEAN_MOTION_DDOT":0},{"OBJECT_NAME":"AQUA","OBJECT_ID":"2002-022A","EPOCH":"2026-03-30T13:42:59.005728","MEAN_MOTION":14.62025145,"ECCENTRICITY":0.00012053,"INCLINATION":98.4209,"RA_OF_ASC_NODE":57.3224,"ARG_OF_PERICENTER":117.6253,"MEAN_ANOMALY":10.8661,"EPHEMERIS_TYPE":0,"CLASSIFICATION_TYPE":"U","NORAD_CAT_ID":27424,"ELEMENT_SET_NO":999,"REV_AT_EPOCH":27178,"BSTAR":0.0002649637,"MEAN_MOTION_DOT":1.28e-5,"MEAN_MOTION_DDOT":0},{"OBJECT_NAME":"CZ-4B R/B","OBJECT_ID":"2002-024C","EPOCH":"2026-03-30T10:24:44.336736","MEAN_MOTION":14.1455132,"ECCENTRICITY":0.00494492,"INCLINATION":98.8795,"RA_OF_ASC_NODE":142.732,"ARG_OF_PERICENTER":325.0779,"MEAN_ANOMALY":45.121,"EPHEMERIS_TYPE":0,"CLASSIFICATION_TYPE":"U","NORAD_CAT_ID":27432,"ELEMENT_SET_NO":999,"REV_AT_EPOCH":23217,"BSTAR":4.9376589e-5,"MEAN_MOTION_DOT":5.1e-7,"MEAN_MOTION_DDOT":0},{"OBJECT_NAME":"MIDORI II (ADEOS-II)","OBJECT_ID":"2002-056A","EPOCH":"2026-03-30T14:16:48.144288","MEAN_MOTION":14.29301108,"ECCENTRICITY":6.433e-5,"INCLINATION":98.7805,"RA_OF_ASC_NODE":48.2219,"ARG_OF_PERICENTER":19.5822,"MEAN_ANOMALY":340.5384,"EPHEMERIS_TYPE":0,"CLASSIFICATION_TYPE":"U","NORAD_CAT_ID":27597,"ELEMENT_SET_NO":999,"REV_AT_EPOCH":21328,"BSTAR":0.00017575354,"MEAN_MOTION_DOT":4.02e-6,"MEAN_MOTION_DDOT":0},{"OBJECT_NAME":"H-2A R/B","OBJECT_ID":"2002-056E","EPOCH":"2026-03-30T12:19:45.987744","MEAN_MOTION":14.33775005,"ECCENTRICITY":0.00713955,"INCLINATION":98.3238,"RA_OF_ASC_NODE":49.091,"ARG_OF_PERICENTER":99.3535,"MEAN_ANOMALY":13.3101,"EPHEMERIS_TYPE":0,"CLASSIFICATION_TYPE":"U","NORAD_CAT_ID":27601,"ELEMENT_SET_NO":999,"REV_AT_EPOCH":21709,"BSTAR":0.00015361332,"MEAN_MOTION_DOT":3.98e-6,"MEAN_MOTION_DDOT":0},{"OBJECT_NAME":"CZ-4B R/B","OBJECT_ID":"2003-049C","EPOCH":"2026-03-30T13:32:02.488416","MEAN_MOTION":14.55039149,"ECCENTRICITY":0.00483844,"INCLINATION":98.6893,"RA_OF_ASC_NODE":85.2907,"ARG_OF_PERICENTER":166.6781,"MEAN_ANOMALY":193.5705,"EPHEMERIS_TYPE":0,"CLASSIFICATION_TYPE":"U","NORAD_CAT_ID":28059,"ELEMENT_SET_NO":999,"REV_AT_EPOCH":18963,"BSTAR":0.00011913028,"MEAN_MOTION_DOT":4.7e-6,"MEAN_MOTION_DDOT":0},{"OBJECT_NAME":"CZ-2C R/B","OBJECT_ID":"2004-012C","EPOCH":"2026-03-30T02:58:49.041408","MEAN_MOTION":15.67052536,"ECCENTRICITY":0.00134131,"INCLINATION":97.7184,"RA_OF_ASC_NODE":156.3867,"ARG_OF_PERICENTER":228.0706,"MEAN_ANOMALY":131.9411,"EPHEMERIS_TYPE":0,"CLASSIFICATION_TYPE":"U","NORAD_CAT_ID":28222,"ELEMENT_SET_NO":999,"REV_AT_EPOCH":20747,"BSTAR":0.00069856243,"MEAN_MOTION_DOT":0.00075103,"MEAN_MOTION_DDOT":0},{"OBJECT_NAME":"SL-16 R/B","OBJECT_ID":"2004-021B","EPOCH":"2026-03-30T12:42:19.670112","MEAN_MOTION":14.14596003,"ECCENTRICITY":0.00050741,"INCLINATION":71.001,"RA_OF_ASC_NODE":188.7598,"ARG_OF_PERICENTER":344.0348,"MEAN_ANOMALY":16.0613,"EPHEMERIS_TYPE":0,"CLASSIFICATION_TYPE":"U","NORAD_CAT_ID":28353,"ELEMENT_SET_NO":999,"REV_AT_EPOCH":12578,"BSTAR":0.0001673914,"MEAN_MOTION_DOT":2.74e-6,"MEAN_MOTION_DDOT":0},{"OBJECT_NAME":"CZ-4B R/B","OBJECT_ID":"2004-035C","EPOCH":"2026-03-30T12:30:04.819968","MEAN_MOTION":15.29428452,"ECCENTRICITY":0.00300559,"INCLINATION":97.3465,"RA_OF_ASC_NODE":123.515,"ARG_OF_PERICENTER":253.5405,"MEAN_ANOMALY":106.2532,"EPHEMERIS_TYPE":0,"CLASSIFICATION_TYPE":"U","NORAD_CAT_ID":28415,"ELEMENT_SET_NO":999,"REV_AT_EPOCH":18309,"BSTAR":0.00037962365,"MEAN_MOTION_DOT":0.00010907,"MEAN_MOTION_DDOT":0},{"OBJECT_NAME":"CZ-2C R/B","OBJECT_ID":"2004-046B","EPOCH":"2026-03-30T07:27:24.434208","MEAN_MOTION":14.26999672,"ECCENTRICITY":0.01405972,"INCLINATION":98.1978,"RA_OF_ASC_NODE":3.0099,"ARG_OF_PERICENTER":93.8601,"MEAN_ANOMALY":267.8668,"EPHEMERIS_TYPE":0,"CLASSIFICATION_TYPE":"U","NORAD_CAT_ID":28480,"ELEMENT_SET_NO":999,"REV_AT_EPOCH":11144,"BSTAR":8.6330904e-5,"MEAN_MOTION_DOT":1.93e-6,"MEAN_MOTION_DDOT":0},{"OBJECT_NAME":"ARIANE 5 R/B","OBJECT_ID":"2004-049H","EPOCH":"2026-03-30T10:46:53.258592","MEAN_MOTION":14.85304215,"ECCENTRICITY":0.00829069,"INCLINATION":98.2658,"RA_OF_ASC_NODE":258.688,"ARG_OF_PERICENTER":284.0047,"MEAN_ANOMALY":75.1959,"EPHEMERIS_TYPE":0,"CLASSIFICATION_TYPE":"U","NORAD_CAT_ID":28499,"ELEMENT_SET_NO":999,"REV_AT_EPOCH":14887,"BSTAR":0.00012805242,"MEAN_MOTION_DOT":1.104e-5,"MEAN_MOTION_DDOT":0},{"OBJECT_NAME":"CZ-2D R/B","OBJECT_ID":"2005-024B","EPOCH":"2026-03-30T13:00:23.431104","MEAN_MOTION":15.62084987,"ECCENTRICITY":0.00021497,"INCLINATION":97.3575,"RA_OF_ASC_NODE":105.4811,"ARG_OF_PERICENTER":324.3878,"MEAN_ANOMALY":35.7236,"EPHEMERIS_TYPE":0,"CLASSIFICATION_TYPE":"U","NORAD_CAT_ID":28738,"ELEMENT_SET_NO":999,"REV_AT_EPOCH":14303,"BSTAR":0.00064193676,"MEAN_MOTION_DOT":0.00056343,"MEAN_MOTION_DDOT":0}]
