HELIOS 1B               
1 25977U 99064A   26089.29451117  .00002115  00000+0  23808-3 0  9995
2 25977  98.1672 352.1414 0001734  46.9779 313.1581 14.87777840688324
TERRA                   
1 25994U 99068A   26089.62095772  .00000571  00000+0  12535-3 0  9995
2 25994  97.9549 142.2515 0003604 108.1205  44.9382 14.61037126398139
SL-16 R/B               
1 26070U 00006B   26089.36006696  .00000316  00000+0  18468-3 0  9991
2 26070  71.0026  54.3705 0015613 157.4777 202.7034 14.15828374351483
TITAN 4B R/B            
1 26474U 00047B   26089.43393857  .00005080  00000+0  31638-3 0  9997
2 26474  67.9917 342.1720 0039873  11.0705 349.1312 15.09754708396048
ENVISAT                 
1 27386U 02009A   26089.63213402  .00000152  00000+0  63036-4 0  9992
2 27386  98.3762  42.7353 0001219  81.9125  91.8426 14.39044280262180
IDEFIX & ARIANE 42P R/B 
1 27422U 02021B   26089.40182934  .00000332  00000+0  14253-3 0  9993
2 27422  98.5894  27.7635 0012654 123.2530 236.9867 14.31040174246981
AQUA                    
1 27424U 02022A   26089.57151627  .00001280  00000+0  26496-3 0  9994
2 27424  98.4209  57.3224 0001205 117.6253  10.8661 14.62025145271786
CZ-4B R/B               
1 27432U 02024C   26089.43384649  .00000051  00000+0  49377-4 0  9991
2 27432  98.8795 142.7320 0049449 325.0779  45.1210 14.14551320232172
MIDORI II (ADEOS-II)    
1 27597U 02056A   26089.59500167  .00000402  00000+0  17575-3 0  9994
2 27597  98.7805  48.2219 0000643  19.5822 340.5384 14.29301108213287
H-2A R/B                
1 27601U 02056E   26089.51372671  .00000398  00000+0  15361-3 0  9994
2 27601  98.3238  49.0910 0071395  99.3535  13.3101 14.33775005217096
CZ-4B R/B               
1 28059U 03049C   26089.56391769  .00000470  00000+0  11913-3 0  9999
2 28059  98.6893  85.2907 0048384 166.6781 193.5705 14.55039149189630
CZ-2C R/B               
1 28222U 04012C   26089.12417872  .00075103  00000+0  69856-3 0  9992
2 28222  97.7184 156.3867 0013413 228.0706 131.9411 15.67052536207477
SL-16 R/B               
1 28353U 04021B   26089.52939433  .00000274  00000+0  16739-3 0  9992
2 28353  71.0010 188.7598 0005074 344.0348  16.0613 14.14596003125783
CZ-4B R/B               
1 28415U 04035C   26089.52088912  .00010907  00000+0  37962-3 0  9998
2 28415  97.3465 123.5150 0030055 253.5405 106.2532 15.29428452183092
CZ-2C R/B               
1 28480U 04046B   26089.31069947  .00000193  00000+0  86331-4 0  9997
2 28480  98.1978   3.0099 0140597  93.8601 267.8668 14.26999672111449
ARIANE 5 R/B            
1 28499U 04049H   26089.44922753  .00001104  00000+0  12805-3 0  9994
2 28499  98.2658 258.6880 0082906 284.0047  75.1959 14.85304215148876
CZ-2D R/B               
1 28738U 05024B   26089.54193786  .00056343  00000+0  64194-3 0  9994
2 28738  97.3575 105.4811 0002149 324.3878  35.7236 15.62084987143034
